[
    {
        "Altitude(m)": 553508.5569583889,
        "Argument of Periapsis(deg)": 0.026491964442854003,
        "Eccentricity": 0.0,
        "Inclination(deg)": 53.0,
        "Latitude(deg)": 14.130404918751076,
        "Longitude(deg)": 40.94104379850452,
        "Mean Anomaly(deg)": -197.81532852968957,
        "RAAN(deg)": 334.9605734741121,
        "Satellite Name": "Starlink Shell 1 1481",
        "Satellite Number": 1481,
        "Semi-Major Axis(m)": 6931778.249405717,
        "Time(s)": 760
    },
    {
        "Altitude(m)": 553498.133841828,
        "Argument of Periapsis(deg)": 0.02684054292236524,
        "Eccentricity": 0.0,
        "Inclination(deg)": 53.0,
        "Latitude(deg)": 13.635294904584825,
        "Longitude(deg)": 41.299397538461164,
        "Mean Anomaly(deg)": -197.18849732613293,
        "RAAN(deg)": 334.96005470403463,
        "Satellite Name": "Starlink Shell 1 1481",
        "Satellite Number": 1481,
        "Semi-Major Axis(m)": 6931778.249405717,
        "Time(s)": 770
    },
    {
        "Altitude(m)": 553490.2340689661,
        "Argument of Periapsis(deg)": 0.027189121401876473,
        "Eccentricity": 0.0,
        "Inclination(deg)": 53.0,
        "Latitude(deg)": 13.139529609683176,
        "Longitude(deg)": 41.65608674825237,
        "Mean Anomaly(deg)": -196.5616661225762,
        "RAAN(deg)": 334.95953593395717,
        "Satellite Name": "Starlink Shell 1 1481",
        "Satellite Number": 1481,
        "Semi-Major Axis(m)": 6931778.249405717,
        "Time(s)": 780
    },
    {
        "Altitude(m)": 553484.8841504771,
        "Argument of Periapsis(deg)": 0.02753769988138771,
        "Eccentricity": 0.0,
        "Inclination(deg)": 53.0,
        "Latitude(deg)": 12.643136440203824,
        "Longitude(deg)": 42.01117875607049,
        "Mean Anomaly(deg)": -195.93483491901952,
        "RAAN(deg)": 334.95901716387965,
        "Satellite Name": "Starlink Shell 1 1481",
        "Satellite Number": 1481,
        "Semi-Major Axis(m)": 6931778.249405717,
        "Time(s)": 790
    },
    {
        "Altitude(m)": 553482.1094369254,
        "Argument of Periapsis(deg)": 0.02788627836089895,
        "Eccentricity": 0.0,
        "Inclination(deg)": 53.0,
        "Latitude(deg)": 12.146142457353138,
        "Longitude(deg)": 42.36473969955341,
        "Mean Anomaly(deg)": -195.30800371546275,
        "RAAN(deg)": 334.9584983938022,
        "Satellite Name": "Starlink Shell 1 1481",
        "Satellite Number": 1481,
        "Semi-Major Axis(m)": 6931778.249405717,
        "Time(s)": 800
    },
    {
        "Altitude(m)": 553481.9341034457,
        "Argument of Periapsis(deg)": 0.02823485684041019,
        "Eccentricity": 0.0,
        "Inclination(deg)": 53.0,
        "Latitude(deg)": 11.648574392947749,
        "Longitude(deg)": 42.71683505700903,
        "Mean Anomaly(deg)": -194.68117251190608,
        "RAAN(deg)": 334.9579796237247,
        "Satellite Name": "Starlink Shell 1 1481",
        "Satellite Number": 1481,
        "Semi-Major Axis(m)": 6931778.249405717,
        "Time(s)": 810
    },
    {
        "Altitude(m)": 553484.381135011,
        "Argument of Periapsis(deg)": 0.028583435319921423,
        "Eccentricity": 0.0,
        "Inclination(deg)": 53.0,
        "Latitude(deg)": 11.150458664674964,
        "Longitude(deg)": 43.06753017859059,
        "Mean Anomaly(deg)": -194.05434130834934,
        "RAAN(deg)": 334.95746085364726,
        "Satellite Name": "Starlink Shell 1 1481",
        "Satellite Number": 1481,
        "Semi-Major Axis(m)": 6931778.249405717,
        "Time(s)": 820
    },
    {
        "Altitude(m)": 553489.4723122561,
        "Argument of Periapsis(deg)": 0.028932013799432665,
        "Eccentricity": 0.0,
        "Inclination(deg)": 53.0,
        "Latitude(deg)": 10.651821391064773,
        "Longitude(deg)": 43.41688930453794,
        "Mean Anomaly(deg)": -193.42751010479267,
        "RAAN(deg)": 334.95694208356974,
        "Satellite Name": "Starlink Shell 1 1481",
        "Satellite Number": 1481,
        "Semi-Major Axis(m)": 6931778.249405717,
        "Time(s)": 830
    },
    {
        "Altitude(m)": 553497.22819795,
        "Argument of Periapsis(deg)": 0.029280592278943897,
        "Eccentricity": 0.0,
        "Inclination(deg)": 53.0,
        "Latitude(deg)": 10.152688406187313,
        "Longitude(deg)": 43.76497609622318,
        "Mean Anomaly(deg)": -192.80067890123595,
        "RAAN(deg)": 334.95642331349234,
        "Satellite Name": "Starlink Shell 1 1481",
        "Satellite Number": 1481,
        "Semi-Major Axis(m)": 6931778.249405717,
        "Time(s)": 840
    },
    {
        "Altitude(m)": 553507.6681239763,
        "Argument of Periapsis(deg)": 0.029629170758455132,
        "Eccentricity": 0.0,
        "Inclination(deg)": 53.0,
        "Latitude(deg)": 9.653085274089271,
        "Longitude(deg)": 44.11185416711751,
        "Mean Anomaly(deg)": -192.17384769767926,
        "RAAN(deg)": 334.9559045434148,
        "Satellite Name": "Starlink Shell 1 1481",
        "Satellite Number": 1481,
        "Semi-Major Axis(m)": 6931778.249405717,
        "Time(s)": 850
    },
    {
        "Altitude(m)": 553520.8101789998,
        "Argument of Periapsis(deg)": 0.02997774923796637,
        "Eccentricity": 0.0,
        "Inclination(deg)": 53.0,
        "Latitude(deg)": 9.15303730297623,
        "Longitude(deg)": 44.45758593270511,
        "Mean Anomaly(deg)": -191.5470164941225,
        "RAAN(deg)": 334.95538577333735,
        "Satellite Name": "Starlink Shell 1 1481",
        "Satellite Number": 1481,
        "Semi-Major Axis(m)": 6931778.249405717,
        "Time(s)": 860
    },
    {
        "Altitude(m)": 553536.6711966979,
        "Argument of Periapsis(deg)": 0.030326327717477602,
        "Eccentricity": 0.0,
        "Inclination(deg)": 53.0,
        "Latitude(deg)": 8.652569559161927,
        "Longitude(deg)": 44.80223398176361,
        "Mean Anomaly(deg)": -190.92018529056577,
        "RAAN(deg)": 334.9548670032599,
        "Satellite Name": "Starlink Shell 1 1481",
        "Satellite Number": 1481,
        "Semi-Major Axis(m)": 6931778.249405717,
        "Time(s)": 870
    },
    {
        "Altitude(m)": 553555.2667446297,
        "Argument of Periapsis(deg)": 0.030674906196988847,
        "Eccentricity": 0.0,
        "Inclination(deg)": 53.0,
        "Latitude(deg)": 8.151706880787701,
        "Longitude(deg)": 45.14585992609713,
        "Mean Anomaly(deg)": -190.29335408700908,
        "RAAN(deg)": 334.9543482331824,
        "Satellite Name": "Starlink Shell 1 1481",
        "Satellite Number": 1481,
        "Semi-Major Axis(m)": 6931778.249405717,
        "Time(s)": 880
    },
    {
        "Altitude(m)": 553576.611113726,
        "Argument of Periapsis(deg)": 0.031023484676500086,
        "Eccentricity": 0.0,
        "Inclination(deg)": 53.0,
        "Latitude(deg)": 7.650473891330734,
        "Longitude(deg)": 45.48852493114729,
        "Mean Anomaly(deg)": -189.6665228834523,
        "RAAN(deg)": 334.95382946310497,
        "Satellite Name": "Starlink Shell 1 1481",
        "Satellite Number": 1481,
        "Semi-Major Axis(m)": 6931778.249405717,
        "Time(s)": 890
    },
    {
        "Altitude(m)": 553600.7173084045,
        "Argument of Periapsis(deg)": 0.03137206315601132,
        "Eccentricity": 0.0,
        "Inclination(deg)": 53.0,
        "Latitude(deg)": 7.1488950129120346,
        "Longitude(deg)": 45.83029024650848,
        "Mean Anomaly(deg)": -189.03969167989558,
        "RAAN(deg)": 334.9533106930275,
        "Satellite Name": "Starlink Shell 1 1481",
        "Satellite Number": 1481,
        "Semi-Major Axis(m)": 6931778.249405717,
        "Time(s)": 900
    },
    {
        "Altitude(m)": 553627.5970373304,
        "Argument of Periapsis(deg)": 0.03172064163552255,
        "Eccentricity": 0.0,
        "Inclination(deg)": 53.0,
        "Latitude(deg)": 6.646994479411871,
        "Longitude(deg)": 46.1712162234763,
        "Mean Anomaly(deg)": -188.4128604763389,
        "RAAN(deg)": 334.95279192295,
        "Satellite Name": "Starlink Shell 1 1481",
        "Satellite Number": 1481,
        "Semi-Major Axis(m)": 6931778.249405717,
        "Time(s)": 910
    },
    {
        "Altitude(m)": 553657.2607048118,
        "Argument of Periapsis(deg)": 0.0320692201150338,
        "Eccentricity": 0.0,
        "Inclination(deg)": 53.0,
        "Latitude(deg)": 6.1447963494111395,
        "Longitude(deg)": 46.51136284537661,
        "Mean Anomaly(deg)": -187.78602927278226,
        "RAAN(deg)": 334.9522731528725,
        "Satellite Name": "Starlink Shell 1 1481",
        "Satellite Number": 1481,
        "Semi-Major Axis(m)": 6931778.249405717,
        "Time(s)": 920
    },
    {
        "Altitude(m)": 553689.7174028511,
        "Argument of Periapsis(deg)": 0.032417798594545036,
        "Eccentricity": 0.0,
        "Inclination(deg)": 53.0,
        "Latitude(deg)": 5.642324518967005,
        "Longitude(deg)": 46.85079025780319,
        "Mean Anomaly(deg)": -187.1591980692255,
        "RAAN(deg)": 334.95175438279506,
        "Satellite Name": "Starlink Shell 1 1481",
        "Satellite Number": 1481,
        "Semi-Major Axis(m)": 6931778.249405717,
        "Time(s)": 930
    },
    {
        "Altitude(m)": 553724.9749038431,
        "Argument of Periapsis(deg)": 0.03276637707405627,
        "Eccentricity": 0.0,
        "Inclination(deg)": 53.0,
        "Latitude(deg)": 5.139602734232938,
        "Longitude(deg)": 47.18955778589421,
        "Mean Anomaly(deg)": -186.53236686566876,
        "RAAN(deg)": 334.9512356127176,
        "Satellite Name": "Starlink Shell 1 1481",
        "Satellite Number": 1481,
        "Semi-Major Axis(m)": 6931778.249405717,
        "Time(s)": 940
    }
]